[{"OBJECT_NAME":"METOP-C","OBJECT_ID":"2018-087A","EPOCH":"2026-03-09T21:24:06.212448","MEAN_MOTION":14.21497031,"ECCENTRICITY":0.0002203,"INCLINATION":98.6765,"RA_OF_ASC_NODE":130.2612,"ARG_OF_PERICENTER":99.586,"MEAN_ANOMALY":260.5566,"EPHEMERIS_TYPE":0,"CLASSIFICATION_TYPE":"U","NORAD_CAT_ID":43689,"ELEMENT_SET_NO":999,"REV_AT_EPOCH":38072,"BSTAR":8.1967538e-5,"MEAN_MOTION_DOT":1.36e-6,"MEAN_MOTION_DDOT":0},{"OBJECT_NAME":"FENGYUN 1C DEB","OBJECT_ID":"1999-025UA","EPOCH":"2026-03-09T18:54:40.789440","MEAN_MOTION":14.60797271,"ECCENTRICITY":0.02036625,"INCLINATION":98.3228,"RA_OF_ASC_NODE":143.6795,"ARG_OF_PERICENTER":316.7608,"MEAN_ANOMALY":169.6597,"EPHEMERIS_TYPE":0,"CLASSIFICATION_TYPE":"U","NORAD_CAT_ID":30169,"ELEMENT_SET_NO":999,"REV_AT_EPOCH":98993,"BSTAR":0.0016852515,"MEAN_MOTION_DOT":0.00011,"MEAN_MOTION_DDOT":0}]
